DUBAISAT-1              
1 35682U 09041B   26169.31004374  .00000583  00000+0  93946-4 0  9994
2 35682  98.0054 302.5554 0011624  70.5501 289.6963 14.75124003905260
OCEANSAT-2              
1 35931U 09051A   26169.27183323 -.00000152  00000+0 -77797-4 0  9999
2 35931  98.2324 156.0151 0015287 232.6871 127.2903 13.99664212879485
WORLDVIEW-2 (WV-2)      
1 35946U 09055A   26169.27717518  .00000089  00000+0  43832-4 0  9998
2 35946  98.4737 242.7117 0003771 204.2691 155.8319 14.37899710875802
SMOS                    
1 36036U 09059A   26169.09297156  .00000182  00000+0  72030-4 0  9990
2 36036  98.4425 356.4146 0001325  88.2461 271.8879 14.39773011873580
YAOGAN-7                
1 36110U 09069A   26169.10427917  .00000377  00000+0  59312-4 0  9990
2 36110  98.0071  54.9657 0025523  38.9227 321.3815 14.78010700889761
TANDEM-X                
1 36605U 10030A   26168.58693710  .00000287  00000+0  16858-4 0  9994
2 36605  97.4451 176.2891 0001888  87.7615 272.3836 15.19150445886700
CARTOSAT-2B             
1 36795U 10035A   26169.28706553  .00000202  00000+0  34641-4 0  9994
2 36795  97.9948 219.8298 0011233 180.1256 179.9954 14.78661161860010
YAOGAN-10               
1 36834U 10038A   26169.30685471  .00001515  00000+0  18236-3 0  9998
2 36834  97.8968 192.7023 0001675  87.7644  40.5488 14.85351879857372
COSMO-SKYMED 4          
1 37216U 10060A   26169.25388338 -.00000106  00000+0 -67781-5 0  9992
2 37216  97.8880 352.8374 0001383  80.9733 279.1637 14.82152119844722
RESOURCESAT-2           
1 37387U 11015A   26169.21513051  .00000096  00000+0  63944-4 0  9992
2 37387  98.7644 236.6499 0010231 252.2200 107.7861 14.21606818786320
HAIYANG-2A              
1 37781U 11043A   26169.27597649  .00000058  00000+0  10773-3 0  9991
2 37781  99.3388 171.9283 0005827  90.0667 270.1150 13.74350518746807
RASAT                   
1 37791U 11044D   26169.27230416  .00000373  00000+0  73188-4 0  9999
2 37791  98.0581 260.6522 0020267 185.2876 259.4403 14.68167182793344
SRMSAT                  
1 37841U 11058D   26169.08644889  .00000356  00000+0  49076-4 0  9992
2 37841  19.9725  54.0235 0011766 213.5570 297.0907 14.11575739757940
PLEIADES 1A             
1 38012U 11076F   26169.29734765  .00000130  00000+0  37753-4 0  9998
2 38012  98.1978 244.3854 0001643  94.6062 355.9754 14.58571369772158
ZIYUAN 1-02C (ZY 1-02C) 
1 38038U 11079A   26169.33000097  .00000170  00000+0  70074-4 0  9995
2 38038  98.4071 236.6146 0005440 312.6221 120.3983 14.38215178759378
ARIRANG-3 (KOMPSAT-3)   
1 38338U 12025B   26169.26446103  .00000336  00000+0  75992-4 0  9992
2 38338  98.1171 126.7058 0006706 106.6719 253.5220 14.62206963751508
EXACTVIEW-1 (ADS-1B)    
1 38709U 12039C   26169.29404348  .00000086  00000+0  56730-4 0  9998
2 38709  98.9779 286.7092 0011225 163.3022 196.8528 14.24984835722862
SPOT 6                  
1 38755U 12047A   26169.29544866  .00000094  00000+0  30082-4 0  9999
2 38755  98.2119 236.5915 0001514  92.5848 267.5525 14.58563296733215
PLEIADES 1B             
1 39019U 12068A   26169.31436929  .00000087  00000+0  28594-4 0  9996
2 39019  98.1948 244.3504 0001672  91.3239 268.8152 14.58560817721016
GOKTURK 2               
1 39030U 12073A   26169.30142845  .00000113  00000+0  23454-4 0  9995
2 39030  97.6811   6.6765 0001553  55.7032 304.4325 14.75542633724672
LANDSAT 8               
1 39084U 13008A   26169.26079981  .00000258  00000+0  67465-4 0  9998
2 39084  98.2302 239.3833 0001357  93.6107 266.5247 14.57095195698059
SARAL                   
1 39086U 13009A   26169.29786466  .00000058  00000+0  37352-4 0  9997
2 39086  98.5557 355.8510 0000674 301.9018  58.2100 14.32856167695765
GAOFEN-1                
1 39150U 13018A   26169.28281647 -.00000010  00000+0  58197-5 0  9999
2 39150  97.9096 241.3284 0015695 262.5735  97.3691 14.76535986708408
VNREDSAT 1              
1 39160U 13021B   26169.25023568  .00000382  00000+0  80014-4 0  9990
2 39160  97.9076 222.6260 0001731  88.4435 271.6967 14.64857735700446
ARIRANG-5 (KOMPSAT-5)   
1 39227U 13042A   26169.29676116  .00000474  00000+0  38198-4 0  9992
2 39227  97.6201 355.9814 0005418 117.2440 242.9339 15.04493495704021
SKYSAT-A                
1 39418U 13066C   26169.11710793  .00001965  00000+0  11452-3 0  9990
2 39418  97.3811 218.4848 0020039 314.0985  45.8597 15.12979954688625
DUBAISAT-2              
1 39419U 13066D   26169.26345770  .00004614  00000+0  28589-3 0  9999
2 39419  97.4559 159.3799 0012183  36.9579 323.2487 15.10188874686556
GPM-CORE                
1 39574U 14009C   26169.24538765  .00009254  00000+0  20265-3 0  9993
2 39574  64.9726 304.5825 0011802 251.8709 108.1146 15.44590855697970
SENTINEL-1A             
1 39634U 14016A   26169.32749419  .00000156  00000+0  42693-4 0  9999
2 39634  98.1773 176.8440 0001418  79.3707 280.7652 14.59199598650189
KAZEOSAT 1              
1 39731U 14024A   26169.27061672  .00000014  00000+0  17101-4 0  9997
2 39731  98.3206 241.6910 0001327  76.1308 284.0030 14.42080242638713
