OBJECT_NAME,OBJECT_ID,EPOCH,MEAN_MOTION,ECCENTRICITY,INCLINATION,RA_OF_ASC_NODE,ARG_OF_PERICENTER,MEAN_ANOMALY,EPHEMERIS_TYPE,CLASSIFICATION_TYPE,NORAD_CAT_ID,ELEMENT_SET_NO,REV_AT_EPOCH,BSTAR,MEAN_MOTION_DOT,MEAN_MOTION_DDOT
DUBAISAT-1,2009-041B,2026-06-18T07:26:27.779136,14.75124003,.00116246,98.0054,302.5554,70.5501,289.6963,0,U,35682,999,90526,.93946239E-4,.583E-5,0
OCEANSAT-2,2009-051A,2026-06-18T06:31:26.391072,13.99664212,.00152879,98.2324,156.0151,232.6871,127.2903,0,U,35931,999,87948,-.77797241E-4,-.152E-5,0
WORLDVIEW-2 (WV-2),2009-055A,2026-06-18T06:39:07.935552,14.37899710,.00037719,98.4737,242.7117,204.2691,155.8319,0,U,35946,999,87580,.4383199E-4,.89E-6,0
SMOS,2009-059A,2026-06-18T02:13:52.742784,14.39773011,.00013255,98.4425,356.4146,88.2461,271.8879,0,U,36036,999,87358,.72029639E-4,.182E-5,0
YAOGAN-7,2009-069A,2026-06-18T02:30:09.720288,14.78010700,.00255232,98.0071,54.9657,38.9227,321.3815,0,U,36110,999,88976,.59312095E-4,.377E-5,0
TANDEM-X,2010-030A,2026-06-17T14:05:11.365440,15.19150445,.00018883,97.4451,176.2891,87.7615,272.3836,0,U,36605,999,88670,.16858258E-4,.287E-5,0
CARTOSAT-2B,2010-035A,2026-06-18T06:53:22.461792,14.78661161,.00112331,97.9948,219.8298,180.1256,179.9954,0,U,36795,999,86001,.34640696E-4,.202E-5,0
YAOGAN-10,2010-038A,2026-06-18T07:21:52.246944,14.85351879,.0001675,97.8968,192.7023,87.7644,40.5488,0,U,36834,999,85737,.18236111E-3,.1515E-4,0
COSMO-SKYMED 4,2010-060A,2026-06-18T06:05:35.524032,14.82152119,.00013832,97.8880,352.8374,80.9733,279.1637,0,U,37216,999,84472,-.6778118E-5,-.106E-5,0
RESOURCESAT-2,2011-015A,2026-06-18T05:09:47.276064,14.21606818,.00102318,98.7644,236.6499,252.2200,107.7861,0,U,37387,999,78632,.63943837E-4,.96E-6,0
HAIYANG-2A,2011-043A,2026-06-18T06:37:24.368736,13.74350518,.0005827,99.3388,171.9283,90.0667,270.1150,0,U,37781,999,74680,.10772843E-3,.58E-6,0
RASAT,2011-044D,2026-06-18T06:32:07.079424,14.68167182,.00202675,98.0581,260.6522,185.2876,259.4403,0,U,37791,999,79334,.73188308E-4,.373E-5,0
SRMSAT,2011-058D,2026-06-18T02:04:29.184096,14.11575739,.00117662,19.9725,54.0235,213.5570,297.0907,0,U,37841,999,75794,.49076111E-4,.356E-5,0
PLEIADES 1A,2011-076F,2026-06-18T07:08:10.836960,14.58571369,.00016439,98.1978,244.3854,94.6062,355.9754,0,U,38012,999,77215,.37753162E-4,.13E-5,0
ZIYUAN 1-02C (ZY 1-02C),2011-079A,2026-06-18T07:55:12.083808,14.38215178,.00054404,98.4071,236.6146,312.6221,120.3983,0,U,38038,999,75937,.70073992E-4,.17E-5,0
ARIRANG-3 (KOMPSAT-3),2012-025B,2026-06-18T06:20:49.432992,14.62206963,.00067069,98.1171,126.7058,106.6719,253.5220,0,U,38338,999,75150,.75991755E-4,.336E-5,0
EXACTVIEW-1 (ADS-1B),2012-039C,2026-06-18T07:03:25.356672,14.24984835,.00112256,98.9779,286.7092,163.3022,196.8528,0,U,38709,999,72286,.56729644E-4,.86E-6,0
SPOT 6,2012-047A,2026-06-18T07:05:26.764224,14.58563296,.00015144,98.2119,236.5915,92.5848,267.5525,0,U,38755,999,73321,.30082278E-4,.94E-6,0
PLEIADES 1B,2012-068A,2026-06-18T07:32:41.506656,14.58560817,.00016721,98.1948,244.3504,91.3239,268.8152,0,U,39019,999,72101,.28593936E-4,.87E-6,0
GOKTURK 2,2012-073A,2026-06-18T07:14:03.418080,14.75542633,.00015534,97.6811,6.6765,55.7032,304.4325,0,U,39030,999,72467,.23453702E-4,.113E-5,0
LANDSAT 8,2013-008A,2026-06-18T06:15:33.103584,14.57095195,.00013577,98.2302,239.3833,93.6107,266.5247,0,U,39084,999,69805,.67465109E-4,.258E-5,0
SARAL,2013-009A,2026-06-18T07:08:55.506624,14.32856167,.00006747,98.5557,355.8510,301.9018,58.2100,0,U,39086,999,69576,.37351987E-4,.58E-6,0
GAOFEN-1,2013-018A,2026-06-18T06:47:15.343008,14.76535986,.00156953,97.9096,241.3284,262.5735,97.3691,0,U,39150,999,70840,.5819734E-5,-.1E-6,0
VNREDSAT 1,2013-021B,2026-06-18T06:00:20.362752,14.64857735,.00017316,97.9076,222.6260,88.4435,271.6967,0,U,39160,999,70044,.80014352E-4,.382E-5,0
ARIRANG-5 (KOMPSAT-5),2013-042A,2026-06-18T07:07:20.164224,15.04493495,.00054182,97.6201,355.9814,117.2440,242.9339,0,U,39227,999,70402,.38198296E-4,.474E-5,0
SKYSAT-A,2013-066C,2026-06-18T02:48:38.125152,15.12979954,.00200393,97.3811,218.4848,314.0985,45.8597,0,U,39418,999,68862,.11451713E-3,.1965E-4,0
DUBAISAT-2,2013-066D,2026-06-18T06:19:22.745280,15.10188874,.00121835,97.4559,159.3799,36.9579,323.2487,0,U,39419,999,68655,.28589487E-3,.4614E-4,0
GPM-CORE,2014-009C,2026-06-18T05:53:21.492960,15.44590855,.00118022,64.9726,304.5825,251.8709,108.1146,0,U,39574,999,69797,.20265011E-3,.9254E-4,0
SENTINEL-1A,2014-016A,2026-06-18T07:51:35.498016,14.59199598,.00014185,98.1773,176.8440,79.3707,280.7652,0,U,39634,999,65018,.42693463E-4,.156E-5,0
KAZEOSAT 1,2014-024A,2026-06-18T06:29:41.284608,14.42080242,.00013274,98.3206,241.6910,76.1308,284.0030,0,U,39731,999,63871,.17100732E-4,.14E-6,0
